#dP2019  1 19  0  0  0.00000000      96 __u+U IGS08 FIT  IAC
## 2036 518400.00000000   900.00000000 58502 0.0000000000000
+   96   C01C02C03C04C05C06C07C08C09C10C11C12C13C14C32E01E02
+        E03E04E05E07E08E09E11E12E13E14E15E18E19E21E24E25E26
+        E27E30E31E33E36G01G02G03G04G05G06G07G08G09G10G11G12
+        G13G14G15G16G17G18G19G20G21G22G23G24G25G26G27G28G29
+        G30G31G32J01J02J03R01R02R03R04R05R07R08R09R10R11R13
+        R14R15R17R18R19R20R21R22R23R24R26  0  0  0  0  0  0
++        13 12 12 12 12  8  9  8  8  9  8  8  8  8  0  5  5
++         6  6  6  5  5  5  5  5  6  5  6  6  5  5  5  6  5
++         5  6  5  6  6  6  3  3  4  3  3  3  3  3  3  3  3
++         3  3  6  3  3  3  3  3  3  3  3  6  3  3  3  3  3
++         3  3  3  8 10 10  5  5  7  5  5  5  5  5  5  5  5
++         5  5  5  5  5  5  5  5  5  5  8  0  0  0  0  0  0
%c M  cc GPS ccc cccc cccc cccc cccc ccccc ccccc ccccc ccccc
%c cc cc ccc ccc cccc cccc cccc cccc ccccc ccccc ccccc ccccc
%f  1.2500000  1.025000000  0.00000000000  0.000000000000000
%f  0.0000000  0.000000000  0.00000000000  0.000000000000000
%i    0    0    0    0      0      0      0      0         0
%i    0    0    0    0      0      0      0      0         0
/* INFORMATION & ANALYSIS CENTER (IAC)            FINAL DATA
/* S/V CLOCKS ARE ALIGNED TO GPS & GLONASS TIME RESPECTIVELY
/* USING THE BROADCAST EPHEMERIS                            
/* PCV:IGS14_2035 OL/AL:FES2004  NONE     YN ORB:CoN CLK:CoN
*  2019 01 19  0 15  0.00000000
PC01 -32312.639600  27057.311774  -1003.095663    105.536351
PC02   4448.864980  41918.638740    965.527918   -255.107199
PC03 -14796.423853  39518.512410   -286.093494    -94.852628
PC04 -39630.397538  14325.166290   -526.937705   -208.484115
PC05  21906.203836  36028.606788   1257.127734    -76.698589
PC06  -7109.486373  32052.291491  26936.082002    291.089274
PC07 -20137.597389  22076.882401 -29789.190415    192.967433
PC08 -21163.748012  35877.791338   5480.117812     92.376726
PC09   3124.174690  39139.382694  15986.837362    460.792542
PC10  -3373.771800  25494.434141 -33282.808560   -419.392843
PC11  10499.706411 -21706.843943  14163.307676    -98.805213
PC12  14628.962014   7671.839638  22547.196787    355.926559
PC13 -11933.650068  36851.601038  16391.577591   -492.512178
PC14  19950.891853  -3443.692572 -19172.679351    760.168059
PC32 -25158.835698 -10504.778726   5970.051207 999999.999999
PE01   7683.533741  15194.746007 -24212.388554   -523.724373
PE02  -7714.379060 -15187.313104  24206.515451     43.904204
PE03 -12154.465658 -25970.446527  -7376.852551   -123.729252
PE04  21690.680399  16921.453801 -10928.452109   -202.911212
PE05   4572.295912 -19852.819730 -21477.659971    122.684765
PE07 -18559.638551   2145.819905  22961.103995   -115.159117
PE08 -21797.018627 -16721.209640  11032.730585   6420.717973
PE09  18416.383807  -2245.250702 -23061.081507   6554.140477
PE11  19156.091588 -13241.281620  18267.220397   5720.009849
PE12  14192.342424   8478.450061  24565.366227   5973.230447
PE13 -19035.917626  13228.644282 -18394.854948    381.899861
PE14  11994.825564  20360.045303   9681.905281   6457.882149
PE15 -14345.980841  -7962.192692 -24621.739095    922.578922
PE18 -19833.891461 -11961.784591 -21247.426294   5595.954006
PE19  10769.460276  25989.442545   9211.022854     -9.019070
PE21 -15064.035151  15100.408387 -20524.359211   -515.127485
PE24  28480.628373  -6207.832332   5207.443213   6278.831238
PE25  15107.078677 -15092.001440  20504.917243   1919.709432
PE26 -12896.013474  26599.429331  -1459.613723   5004.003025
PE27 -28589.483985   6043.674243  -4697.780689    546.931943
PE30 -25572.320256  -6424.407114  13432.139389   5177.435541
PE31  25331.850012   6531.870810 -13843.654742    929.115047
PE33   1261.118108  24564.274686  16484.733857    847.935742
PE36  12610.300724 -26742.917167   1396.130056    758.030327
PG01  11487.739215 -21299.917731 -10746.534851   -147.720743
PG02 -20774.838653  12880.440220  -9543.972294   -116.769999
PG03   3857.347247 -14699.804854 -21819.899503    178.072031
PG04 -10883.683033 -22881.013986   7974.410755     87.814102
PG05 -22567.156692   4208.434863  13409.372970      0.849919
PG06 -18741.362649    551.556571 -18782.858099    294.106781
PG07  -2279.583232 -17362.541085  20076.056469     49.121503
PG08   8182.497393 -17483.333341  18210.054103   -129.559931
PG09  -7756.708857 -25369.807322   1151.624564    470.026796
PG10  23197.864051  11286.788686   6774.392449    133.188845
PG11   8683.009610 -25227.957524   -919.553306   -673.372901
PG12  -7247.004508  13051.620676 -22155.421776    275.236229
PG13 -13102.360269   9933.017668  20733.443757    -77.852971
PG14  15508.838709   7435.752738 -19984.329415    -92.926639
PG15  -5523.065020  20117.261450  15956.074839   -331.669840
PG16  22535.278127  -1627.723916  14140.677708    -13.593755
PG17 -13556.638678 -17025.740773 -14884.296643     -2.795280
PG18  17432.963506 -19919.951086  -1104.895011     17.161207
PG19 -15198.158603  -7289.340819 -20789.480733   -361.902089
PG20  16799.304915  13987.392229  15061.649297    521.271058
PG21   5858.035274  16115.584775  21113.843134   -266.584211
PG22  12193.992875 -12588.247991 -19711.223252   -625.868185
PG23   -501.619510 -24848.743662  -8453.385216   -200.097296
PG24 -13957.074796  21596.059189  -6077.873242    -60.972121
PG25   5754.702075  16173.819039 -20530.160921   -707.886208
PG26  26003.481905   2875.192904   5080.020517    100.226969
PG27  13294.755554  -7094.495652  21758.995865    -51.449852
PG28 -20924.928261 -14105.111899   8754.807742    762.333017
PG29   3513.018160  26235.382264  -2221.735862    290.247832
PG30 -12629.744176  -9539.574675  21356.597906    -38.139039
PG31  20467.281412  -2823.335684 -16924.549197     64.797332
PG32  15646.777918  13904.869260 -16371.440542   -268.510783
PJ01 -25891.971764  23290.473634  28866.935332   -210.419220
PJ02 -36047.441447  19419.552843  -5575.374256     -0.729568
PJ03 -17175.193073  29344.103927 -20181.381621      0.027093
PR01  15179.882290    308.938018 -20496.905649     38.135603
PR02  -1176.567969 -14586.126994 -20846.671505    350.020410
PR03 -15027.591156 -19017.468343  -7843.855977     -9.610563
PR04 -20097.472801 -11996.010523  10131.193324    291.840187
PR05 -13576.248951   1262.121269  21556.965097     20.265904
PR07  15287.337792  19041.553828   7468.973533    -56.125625
PR08  20111.482572  12558.071065  -9372.190497     19.486841
PR09  -9826.639249  12940.476839 -19673.004759     49.709482
PR10   7114.596379   8894.797879 -22836.446176     39.946339
PR11  22084.961936   -339.733542 -12711.805753    -53.937709
PR13  10841.307873 -12899.682504  19132.364405    -19.131590
PR14  -7355.058424  -9038.414019  22702.327596     35.077129
PR15 -21634.308265    -75.798207  13526.657872     99.359230
PR17  -1627.796610 -21292.529515 -13963.171168    197.304214
PR18  -9154.813881  -6512.028275 -22873.526201     30.288369
PR19 -11941.980511  11538.307974 -19354.373362    -61.952028
PR20  -7663.003691  24154.539250  -3114.603526   -366.039753
PR21   1894.696044  20913.185570  14472.170670    -26.340464
PR22   9813.541126   4065.868457  23207.120345    -64.291807
PR23  11349.078339 -16085.847041  16219.491543    204.097594
PR24   6584.289407 -24582.505000   1605.303179   -176.181002
PR26  -7977.929208  23654.820023  -5162.818339     16.535319
EOF
